[
    {
        "Altitude(m)": 553498.5436212159,
        "Argument of Periapsis(deg)": 0.006622991110713501,
        "Eccentricity": 0.0,
        "Inclination(deg)": 53.0,
        "Latitude(deg)": 9.471379483469349,
        "Longitude(deg)": -98.59060867868989,
        "Mean Anomaly(deg)": -348.09020713242245,
        "RAAN(deg)": 354.990143368528,
        "Satellite Name": "Starlink Shell 1 1562",
        "Satellite Number": 1562,
        "Semi-Major Axis(m)": 6931778.249405717,
        "Time(s)": 190
    },
    {
        "Altitude(m)": 553487.1556048921,
        "Argument of Periapsis(deg)": 0.0069715695902247375,
        "Eccentricity": 0.0,
        "Inclination(deg)": 53.0,
        "Latitude(deg)": 9.971149376024446,
        "Longitude(deg)": -98.24415337036396,
        "Mean Anomaly(deg)": -347.4633759288657,
        "RAAN(deg)": 354.9896245984506,
        "Satellite Name": "Starlink Shell 1 1562",
        "Satellite Number": 1562,
        "Semi-Major Axis(m)": 6931778.249405717,
        "Time(s)": 200
    },
    {
        "Altitude(m)": 553478.4599951174,
        "Argument of Periapsis(deg)": 0.007320148069735974,
        "Eccentricity": 0.0,
        "Inclination(deg)": 53.0,
        "Latitude(deg)": 10.470458339752529,
        "Longitude(deg)": -97.89651186571325,
        "Mean Anomaly(deg)": -346.836544725309,
        "RAAN(deg)": 354.9891058283731,
        "Satellite Name": "Starlink Shell 1 1562",
        "Satellite Number": 1562,
        "Semi-Major Axis(m)": 6931778.249405717,
        "Time(s)": 210
    },
    {
        "Altitude(m)": 553472.4379061661,
        "Argument of Periapsis(deg)": 0.007668726549247212,
        "Eccentricity": 0.0,
        "Inclination(deg)": 53.0,
        "Latitude(deg)": 10.969280904728869,
        "Longitude(deg)": -97.5476212491457,
        "Mean Anomaly(deg)": -346.2097135217523,
        "RAAN(deg)": 354.9885870582956,
        "Satellite Name": "Starlink Shell 1 1562",
        "Satellite Number": 1562,
        "Semi-Major Axis(m)": 6931778.249405717,
        "Time(s)": 220
    },
    {
        "Altitude(m)": 553469.0692166622,
        "Argument of Periapsis(deg)": 0.00801730502875845,
        "Eccentricity": 0.0,
        "Inclination(deg)": 53.0,
        "Latitude(deg)": 11.467591336186835,
        "Longitude(deg)": -97.19741806255001,
        "Mean Anomaly(deg)": -345.5828823181955,
        "RAAN(deg)": 354.98806828821813,
        "Satellite Name": "Starlink Shell 1 1562",
        "Satellite Number": 1562,
        "Semi-Major Axis(m)": 6931778.249405717,
        "Time(s)": 230
    },
    {
        "Altitude(m)": 553468.3325823443,
        "Argument of Periapsis(deg)": 0.008365883508269684,
        "Eccentricity": 0.0,
        "Inclination(deg)": 53.0,
        "Latitude(deg)": 11.965363620175214,
        "Longitude(deg)": -96.84583777435746,
        "Mean Anomaly(deg)": -344.95605111463885,
        "RAAN(deg)": 354.98754951814067,
        "Satellite Name": "Starlink Shell 1 1562",
        "Satellite Number": 1562,
        "Semi-Major Axis(m)": 6931778.249405717,
        "Time(s)": 240
    },
    {
        "Altitude(m)": 553470.2054494058,
        "Argument of Periapsis(deg)": 0.008714461987780921,
        "Eccentricity": 0.0,
        "Inclination(deg)": 53.0,
        "Latitude(deg)": 12.462571448957858,
        "Longitude(deg)": -96.49281576139694,
        "Mean Anomaly(deg)": -344.32921991108213,
        "RAAN(deg)": 354.9870307480632,
        "Satellite Name": "Starlink Shell 1 1562",
        "Satellite Number": 1562,
        "Semi-Major Axis(m)": 6931778.249405717,
        "Time(s)": 250
    },
    {
        "Altitude(m)": 553474.6640684373,
        "Argument of Periapsis(deg)": 0.009063040467292158,
        "Eccentricity": 0.0,
        "Inclination(deg)": 53.0,
        "Latitude(deg)": 12.959188206141983,
        "Longitude(deg)": -96.13828677780458,
        "Mean Anomaly(deg)": -343.7023887075254,
        "RAAN(deg)": 354.98651197798574,
        "Satellite Name": "Starlink Shell 1 1562",
        "Satellite Number": 1562,
        "Semi-Major Axis(m)": 6931778.249405717,
        "Time(s)": 260
    },
    {
        "Altitude(m)": 553481.6835089829,
        "Argument of Periapsis(deg)": 0.009411618946803396,
        "Eccentricity": 0.0,
        "Inclination(deg)": 53.0,
        "Latitude(deg)": 13.455186951523977,
        "Longitude(deg)": -95.78218442386891,
        "Mean Anomaly(deg)": -343.0755575039687,
        "RAAN(deg)": 354.9859932079082,
        "Satellite Name": "Starlink Shell 1 1562",
        "Satellite Number": 1562,
        "Semi-Major Axis(m)": 6931778.249405717,
        "Time(s)": 270
    },
    {
        "Altitude(m)": 553491.2376746134,
        "Argument of Periapsis(deg)": 0.009760197426314633,
        "Eccentricity": 0.0,
        "Inclination(deg)": 53.0,
        "Latitude(deg)": 13.950540405639217,
        "Longitude(deg)": -95.4244421276958,
        "Mean Anomaly(deg)": -342.448726300412,
        "RAAN(deg)": 354.98547443783076,
        "Satellite Name": "Starlink Shell 1 1562",
        "Satellite Number": 1562,
        "Semi-Major Axis(m)": 6931778.249405717,
        "Time(s)": 280
    },
    {
        "Altitude(m)": 553503.2993186287,
        "Argument of Periapsis(deg)": 0.01010877590582587,
        "Eccentricity": 0.0,
        "Inclination(deg)": 53.0,
        "Latitude(deg)": 14.445220934003988,
        "Longitude(deg)": -95.06499261395972,
        "Mean Anomaly(deg)": -341.8218950968553,
        "RAAN(deg)": 354.9849556677533,
        "Satellite Name": "Starlink Shell 1 1562",
        "Satellite Number": 1562,
        "Semi-Major Axis(m)": 6931778.249405717,
        "Time(s)": 290
    },
    {
        "Altitude(m)": 553517.8400602699,
        "Argument of Periapsis(deg)": 0.010457354385337106,
        "Eccentricity": 0.0,
        "Inclination(deg)": 53.0,
        "Latitude(deg)": 14.939200531035949,
        "Longitude(deg)": -94.70376737262961,
        "Mean Anomaly(deg)": -341.19506389329854,
        "RAAN(deg)": 354.98443689767583,
        "Satellite Name": "Starlink Shell 1 1562",
        "Satellite Number": 1562,
        "Semi-Major Axis(m)": 6931778.249405717,
        "Time(s)": 300
    },
    {
        "Altitude(m)": 553534.8304015079,
        "Argument of Periapsis(deg)": 0.010805932864848343,
        "Eccentricity": 0.0,
        "Inclination(deg)": 53.0,
        "Latitude(deg)": 15.432450803642698,
        "Longitude(deg)": -94.34069764055779,
        "Mean Anomaly(deg)": -340.5682326897418,
        "RAAN(deg)": 354.9839181275983,
        "Satellite Name": "Starlink Shell 1 1562",
        "Satellite Number": 1562,
        "Semi-Major Axis(m)": 6931778.249405717,
        "Time(s)": 310
    },
    {
        "Altitude(m)": 553554.2397443798,
        "Argument of Periapsis(deg)": 0.01115451134435958,
        "Eccentricity": 0.0,
        "Inclination(deg)": 53.0,
        "Latitude(deg)": 15.924942954462358,
        "Longitude(deg)": -93.97571387020861,
        "Mean Anomaly(deg)": -339.94140148618516,
        "RAAN(deg)": 354.98339935752085,
        "Satellite Name": "Starlink Shell 1 1562",
        "Satellite Number": 1562,
        "Semi-Major Axis(m)": 6931778.249405717,
        "Time(s)": 320
    },
    {
        "Altitude(m)": 553576.0364088175,
        "Argument of Periapsis(deg)": 0.011503089823870818,
        "Eccentricity": 0.0,
        "Inclination(deg)": 53.0,
        "Latitude(deg)": 16.416647764747047,
        "Longitude(deg)": -93.6087451984195,
        "Mean Anomaly(deg)": -339.3145702826284,
        "RAAN(deg)": 354.98288058744345,
        "Satellite Name": "Starlink Shell 1 1562",
        "Satellite Number": 1562,
        "Semi-Major Axis(m)": 6931778.249405717,
        "Time(s)": 330
    },
    {
        "Altitude(m)": 553600.1876510471,
        "Argument of Periapsis(deg)": 0.011851668303382053,
        "Eccentricity": 0.0,
        "Inclination(deg)": 53.0,
        "Latitude(deg)": 16.90753557687523,
        "Longitude(deg)": -93.23972042809355,
        "Mean Anomaly(deg)": -338.68773907907166,
        "RAAN(deg)": 354.9823618173659,
        "Satellite Name": "Starlink Shell 1 1562",
        "Satellite Number": 1562,
        "Semi-Major Axis(m)": 6931778.249405717,
        "Time(s)": 340
    },
    {
        "Altitude(m)": 553626.659682456,
        "Argument of Periapsis(deg)": 0.012200246782893292,
        "Eccentricity": 0.0,
        "Inclination(deg)": 53.0,
        "Latitude(deg)": 17.397576276480052,
        "Longitude(deg)": -92.86856749710691,
        "Mean Anomaly(deg)": -338.060907875515,
        "RAAN(deg)": 354.98184304728846,
        "Satellite Name": "Starlink Shell 1 1562",
        "Satellite Number": 1562,
        "Semi-Major Axis(m)": 6931778.249405717,
        "Time(s)": 350
    },
    {
        "Altitude(m)": 553655.4176889838,
        "Argument of Periapsis(deg)": 0.012548825262404526,
        "Eccentricity": 0.0,
        "Inclination(deg)": 53.0,
        "Latitude(deg)": 17.886739274182546,
        "Longitude(deg)": -92.4952129473352,
        "Mean Anomaly(deg)": -337.4340766719582,
        "RAAN(deg)": 354.981324277211,
        "Satellite Name": "Starlink Shell 1 1562",
        "Satellite Number": 1562,
        "Semi-Major Axis(m)": 6931778.249405717,
        "Time(s)": 360
    },
    {
        "Altitude(m)": 553686.4258509986,
        "Argument of Periapsis(deg)": 0.012897403741915765,
        "Eccentricity": 0.0,
        "Inclination(deg)": 53.0,
        "Latitude(deg)": 18.37499348691711,
        "Longitude(deg)": -92.1195829067065,
        "Mean Anomaly(deg)": -336.80724546840156,
        "RAAN(deg)": 354.9808055071335,
        "Satellite Name": "Starlink Shell 1 1562",
        "Satellite Number": 1562,
        "Semi-Major Axis(m)": 6931778.249405717,
        "Time(s)": 370
    }
]